0 COSMOS 839 DEB
1 21128U 76067BY  13282.30392549 -.00000230  00000-0 -57568-3 0  3570
2 21128 066.0415 227.9522 0686667 235.7153 286.0202 12.39708097 41935
0 COSMOS 839 DEB
1 21128U 76067BY  13285.28914054 -.00000266  00000-0 -69601-3 0  3582
2 21128 066.0417 222.1524 0686343 234.4564 288.8723 12.39706823 42304
0 COSMOS 839 DEB
1 21128U 76067BY  13287.45784845 -.00000212  00000-0 -51777-3 0  3593
2 21128 066.0418 217.9391 0686105 233.5419 247.6874 12.39705332 42577
0 COSMOS 839 DEB
1 21128U 76067BY  13289.86616821 -.00000211  00000-0 -51402-3 0  3604
2 21128 066.0416 213.2604 0685844 232.5232 195.8638 12.39703581 42871
0 COSMOS 839 DEB
1 21128U 76067BY  13292.20727006 -.00000169  00000-0 -37448-3 0  3611
2 21128 066.0412 208.7125 0685603 231.5348 204.0445 12.39703513 43161
0 COSMOS 839 DEB
1 21128U 76067BY  13294.39114856 -.00000209  00000-0 -50967-3 0  3623
2 21128 066.0409 204.4699 0685202 230.6022 230.5440 12.39702366 43434
